{"type": "FeatureCollection", "features": [{"type": "Feature", "properties": {"objectType": "annotation", "name": "Follicle_1", "classification": {"name": "Follicle"}}, "geometry": {"type": "Polygon", "coordinates": [[[722.2790181437167, 703.1331952647279], [978.3003598695404, 703.1331952647279], [978.3003598695404, 959.1545369905516], [722.2790181437167, 959.1545369905516], [722.2790181437167, 703.1331952647279]]]}}, {"type": "Feature", "properties": {"objectType": "annotation", "name": "Follicle_1_exp20um", "classification": {"name": "FollicleExpanded"}}, "geometry": {"type": "Polygon", "coordinates": [[[682.8934332677812, 663.7476103887924], [1017.6859447454759, 663.7476103887924], [1017.6859447454759, 998.5401218664871], [682.8934332677812, 998.5401218664871], [682.8934332677812, 663.7476103887924]]]}}, {"type": "Feature", "properties": {"objectType": "annotation", "name": "Follicle_2", "classification": {"name": "Follicle"}}, "geometry": {"type": "Polygon", "coordinates": [[[1890.697081914314, 780.0738110517092], [2061.245758687467, 780.0738110517092], [2061.245758687467, 950.6224878248626], [1890.697081914314, 950.6224878248626], [1890.697081914314, 780.0738110517092]]]}}, {"type": "Feature", "properties": {"objectType": "annotation", "name": "Follicle_2_exp20um", "classification": {"name": "FollicleExpanded"}}, "geometry": {"type": "Polygon", "coordinates": [[[1851.3114970383783, 740.6882261757738], [2100.6313435634024, 740.6882261757738], [2100.6313435634024, 990.0080727007979], [1851.3114970383783, 990.0080727007979], [1851.3114970383783, 740.6882261757738]]]}}, {"type": "Feature", "properties": {"objectType": "annotation", "name": "Follicle_3", "classification": {"name": "Follicle"}}, "geometry": {"type": "Polygon", "coordinates": [[[3112.046391296619, 709.055429285551], [3300.5925487957575, 709.055429285551], [3300.5925487957575, 897.6015867846901], [3112.046391296619, 897.6015867846901], [3112.046391296619, 709.055429285551]]]}}, {"type": "Feature", "properties": {"objectType": "annotation", "name": "Follicle_3_exp20um", "classification": {"name": "FollicleExpanded"}}, "geometry": {"type": "Polygon", "coordinates": [[[3072.6608064206835, 669.6698444096156], [3339.978133671693, 669.6698444096156], [3339.978133671693, 936.9871716606254], [3072.6608064206835, 936.9871716606254], [3072.6608064206835, 669.6698444096156]]]}}, {"type": "Feature", "properties": {"objectType": "annotation", "name": "Follicle_4", "classification": {"name": "Follicle"}}, "geometry": {"type": "Polygon", "coordinates": [[[674.0115995175706, 1856.4732306464523], [982.2405034013209, 1856.4732306464523], [982.2405034013209, 2164.702134530203], [674.0115995175706, 2164.702134530203], [674.0115995175706, 1856.4732306464523]]]}}, {"type": "Feature", "properties": {"objectType": "annotation", "name": "Follicle_4_exp20um", "classification": {"name": "FollicleExpanded"}}, "geometry": {"type": "Polygon", "coordinates": [[[634.6260146416353, 1817.087645770517], [1021.6260882772563, 1817.087645770517], [1021.6260882772563, 2204.087719406138], [634.6260146416353, 2204.087719406138], [634.6260146416353, 1817.087645770517]]]}}, {"type": "Feature", "properties": {"objectType": "annotation", "name": "Follicle_5", "classification": {"name": "Follicle"}}, "geometry": {"type": "Polygon", "coordinates": [[[1923.4753012525096, 1881.1850971344022], [2164.174742110681, 1881.1850971344022], [2164.174742110681, 2121.8845379925738], [1923.4753012525096, 2121.8845379925738], [1923.4753012525096, 1881.1850971344022]]]}}, {"type": "Feature", "properties": {"objectType": "annotation", "name": "Follicle_5_exp20um", "classification": {"name": "FollicleExpanded"}}, "geometry": {"type": "Polygon", "coordinates": [[[1884.0897163765742, 1841.7995122584668], [2203.5603269866165, 1841.7995122584668], [2203.5603269866165, 2161.270122868509], [1884.0897163765742, 2161.270122868509], [1884.0897163765742, 1841.7995122584668]]]}}, {"type": "Feature", "properties": {"objectType": "annotation", "name": "Follicle_6", "classification": {"name": "Follicle"}}, "geometry": {"type": "Polygon", "coordinates": [[[2998.3809199180287, 1854.405145120567], [3298.74682825076, 1854.405145120567], [3298.74682825076, 2154.7710534532985], [2998.3809199180287, 2154.7710534532985], [2998.3809199180287, 1854.405145120567]]]}}, {"type": "Feature", "properties": {"objectType": "annotation", "name": "Follicle_6_exp20um", "classification": {"name": "FollicleExpanded"}}, "geometry": {"type": "Polygon", "coordinates": [[[2958.9953350420933, 1815.0195602446317], [3338.132413126695, 1815.0195602446317], [3338.132413126695, 2194.156638329234], [2958.9953350420933, 2194.156638329234], [2958.9953350420933, 1815.0195602446317]]]}}]}