{"type": "FeatureCollection", "features": [{"type": "Feature", "properties": {"objectType": "annotation", "name": "Follicle_1", "classification": {"name": "Follicle"}}, "geometry": {"type": "Polygon", "coordinates": [[[568.0336106953976, 685.6369856578127], [863.2093251898059, 685.6369856578127], [863.2093251898059, 980.812700152221], [568.0336106953976, 980.812700152221], [568.0336106953976, 685.6369856578127]]]}}, {"type": "Feature", "properties": {"objectType": "annotation", "name": "Follicle_1_exp20um", "classification": {"name": "FollicleExpanded"}}, "geometry": {"type": "Polygon", "coordinates": [[[528.6480258194622, 646.2514007818772], [902.5949100657413, 646.2514007818772], [902.5949100657413, 1020.1982850281565], [528.6480258194622, 1020.1982850281565], [528.6480258194622, 646.2514007818772]]]}}, {"type": "Feature", "properties": {"objectType": "annotation", "name": "Follicle_2", "classification": {"name": "Follicle"}}, "geometry": {"type": "Polygon", "coordinates": [[[1754.8671751075192, 598.1400847802322], [2062.3429606834907, 598.1400847802322], [2062.3429606834907, 905.6158703562035], [1754.8671751075192, 905.6158703562035], [1754.8671751075192, 598.1400847802322]]]}}, {"type": "Feature", "properties": {"objectType": "annotation", "name": "Follicle_2_exp20um", "classification": {"name": "FollicleExpanded"}}, "geometry": {"type": "Polygon", "coordinates": [[[1715.4815902315838, 558.7544999042968], [2101.728545559426, 558.7544999042968], [2101.728545559426, 945.0014552321388], [1715.4815902315838, 945.0014552321388], [1715.4815902315838, 558.7544999042968]]]}}, {"type": "Feature", "properties": {"objectType": "annotation", "name": "Follicle_3", "classification": {"name": "Follicle"}}, "geometry": {"type": "Polygon", "coordinates": [[[3070.7973914503527, 717.3851573748078], [3327.438815784886, 717.3851573748078], [3327.438815784886, 974.0265817093408], [3070.7973914503527, 974.0265817093408], [3070.7973914503527, 717.3851573748078]]]}}, {"type": "Feature", "properties": {"objectType": "annotation", "name": "Follicle_3_exp20um", "classification": {"name": "FollicleExpanded"}}, "geometry": {"type": "Polygon", "coordinates": [[[3031.4118065744174, 677.9995724988723], [3366.8244006608215, 677.9995724988723], [3366.8244006608215, 1013.4121665852763], [3031.4118065744174, 1013.4121665852763], [3031.4118065744174, 677.9995724988723]]]}}, {"type": "Feature", "properties": {"objectType": "annotation", "name": "Follicle_4", "classification": {"name": "Follicle"}}, "geometry": {"type": "Polygon", "coordinates": [[[686.1710177906436, 1777.6068366870338], [926.8364980656183, 1777.6068366870338], [926.8364980656183, 2018.2723169620087], [686.1710177906436, 2018.2723169620087], [686.1710177906436, 1777.6068366870338]]]}}, {"type": "Feature", "properties": {"objectType": "annotation", "name": "Follicle_4_exp20um", "classification": {"name": "FollicleExpanded"}}, "geometry": {"type": "Polygon", "coordinates": [[[646.7854329147083, 1738.2212518110985], [966.2220829415537, 1738.2212518110985], [966.2220829415537, 2057.657901837944], [646.7854329147083, 2057.657901837944], [646.7854329147083, 1738.2212518110985]]]}}, {"type": "Feature", "properties": {"objectType": "annotation", "name": "Follicle_5", "classification": {"name": "Follicle"}}, "geometry": {"type": "Polygon", "coordinates": [[[1792.3557573604053, 1864.2770668631292], [2011.3472057481058, 1864.2770668631292], [2011.3472057481058, 2083.2685152508298], [1792.3557573604053, 2083.2685152508298], [1792.3557573604053, 1864.2770668631292]]]}}, {"type": "Feature", "properties": {"objectType": "annotation", "name": "Follicle_5_exp20um", "classification": {"name": "FollicleExpanded"}}, "geometry": {"type": "Polygon", "coordinates": [[[1752.97017248447, 1824.8914819871939], [2050.732790624041, 1824.8914819871939], [2050.732790624041, 2122.654100126765], [1752.97017248447, 2122.654100126765], [1752.97017248447, 1824.8914819871939]]]}}, {"type": "Feature", "properties": {"objectType": "annotation", "name": "Follicle_6", "classification": {"name": "Follicle"}}, "geometry": {"type": "Polygon", "coordinates": [[[2941.451587184531, 1786.2719923221505], [3243.2923381866717, 1786.2719923221505], [3243.2923381866717, 2088.1127433242914], [2941.451587184531, 2088.1127433242914], [2941.451587184531, 1786.2719923221505]]]}}, {"type": "Feature", "properties": {"objectType": "annotation", "name": "Follicle_6_exp20um", "classification": {"name": "FollicleExpanded"}}, "geometry": {"type": "Polygon", "coordinates": [[[2902.066002308595, 1746.8864074462151], [3282.6779230626075, 1746.8864074462151], [3282.6779230626075, 2127.498328200227], [2902.066002308595, 2127.498328200227], [2902.066002308595, 1746.8864074462151]]]}}]}