{"type": "FeatureCollection", "features": [{"type": "Feature", "properties": {"objectType": "annotation", "name": "Follicle_1", "classification": {"name": "Follicle"}}, "geometry": {"type": "Polygon", "coordinates": [[[716.8415700873176, 648.7035144096064], [931.0227188710786, 648.7035144096064], [931.0227188710786, 862.8846631933675], [716.8415700873176, 862.8846631933675], [716.8415700873176, 648.7035144096064]]]}}, {"type": "Feature", "properties": {"objectType": "annotation", "name": "Follicle_1_exp20um", "classification": {"name": "FollicleExpanded"}}, "geometry": {"type": "Polygon", "coordinates": [[[677.4559852113821, 609.317929533671], [970.4083037470141, 609.317929533671], [970.4083037470141, 902.270248069303], [677.4559852113821, 902.270248069303], [677.4559852113821, 609.317929533671]]]}}, {"type": "Feature", "properties": {"objectType": "annotation", "name": "Follicle_2", "classification": {"name": "Follicle"}}, "geometry": {"type": "Polygon", "coordinates": [[[1946.5683508917266, 678.6065240751344], [2138.629633032387, 678.6065240751344], [2138.629633032387, 870.6678062157952], [1946.5683508917266, 870.6678062157952], [1946.5683508917266, 678.6065240751344]]]}}, {"type": "Feature", "properties": {"objectType": "annotation", "name": "Follicle_2_exp20um", "classification": {"name": "FollicleExpanded"}}, "geometry": {"type": "Polygon", "coordinates": [[[1907.1827660157912, 639.220939199199], [2178.015217908323, 639.220939199199], [2178.015217908323, 910.0533910917305], [1907.1827660157912, 910.0533910917305], [1907.1827660157912, 639.220939199199]]]}}, {"type": "Feature", "properties": {"objectType": "annotation", "name": "Follicle_3", "classification": {"name": "Follicle"}}, "geometry": {"type": "Polygon", "coordinates": [[[2996.0821181767433, 705.6895087620196], [3278.2582663229923, 705.6895087620196], [3278.2582663229923, 987.8656569082684], [2996.0821181767433, 987.8656569082684], [2996.0821181767433, 705.6895087620196]]]}}, {"type": "Feature", "properties": {"objectType": "annotation", "name": "Follicle_3_exp20um", "classification": {"name": "FollicleExpanded"}}, "geometry": {"type": "Polygon", "coordinates": [[[2956.696533300808, 666.3039238860842], [3317.6438511989277, 666.3039238860842], [3317.6438511989277, 1027.2512417842038], [2956.696533300808, 1027.2512417842038], [2956.696533300808, 666.3039238860842]]]}}, {"type": "Feature", "properties": {"objectType": "annotation", "name": "Follicle_4", "classification": {"name": "Follicle"}}, "geometry": {"type": "Polygon", "coordinates": [[[709.5809306653507, 1848.4566727652746], [1015.292622953631, 1848.4566727652746], [1015.292622953631, 2154.168365053555], [709.5809306653507, 2154.168365053555], [709.5809306653507, 1848.4566727652746]]]}}, {"type": "Feature", "properties": {"objectType": "annotation", "name": "Follicle_4_exp20um", "classification": {"name": "FollicleExpanded"}}, "geometry": {"type": "Polygon", "coordinates": [[[670.1953457894153, 1809.0710878893392], [1054.6782078295664, 1809.0710878893392], [1054.6782078295664, 2193.5539499294905], [670.1953457894153, 2193.5539499294905], [670.1953457894153, 1809.0710878893392]]]}}, {"type": "Feature", "properties": {"objectType": "annotation", "name": "Follicle_5", "classification": {"name": "Follicle"}}, "geometry": {"type": "Polygon", "coordinates": [[[1829.1994041863645, 1753.4334022321173], [2131.464659250091, 1753.4334022321173], [2131.464659250091, 2055.6986572958435], [1829.1994041863645, 2055.6986572958435], [1829.1994041863645, 1753.4334022321173]]]}}, {"type": "Feature", "properties": {"objectType": "annotation", "name": "Follicle_5_exp20um", "classification": {"name": "FollicleExpanded"}}, "geometry": {"type": "Polygon", "coordinates": [[[1789.8138193104292, 1714.047817356182], [2170.850244126026, 1714.047817356182], [2170.850244126026, 2095.084242171779], [1789.8138193104292, 2095.084242171779], [1789.8138193104292, 1714.047817356182]]]}}, {"type": "Feature", "properties": {"objectType": "annotation", "name": "Follicle_6", "classification": {"name": "Follicle"}}, "geometry": {"type": "Polygon", "coordinates": [[[3015.2678110214206, 1838.1924617250384], [3256.6737769237475, 1838.1924617250384], [3256.6737769237475, 2079.5984276273653], [3015.2678110214206, 2079.5984276273653], [3015.2678110214206, 1838.1924617250384]]]}}, {"type": "Feature", "properties": {"objectType": "annotation", "name": "Follicle_6_exp20um", "classification": {"name": "FollicleExpanded"}}, "geometry": {"type": "Polygon", "coordinates": [[[2975.882226145485, 1798.8068768491028], [3296.059361799683, 1798.8068768491028], [3296.059361799683, 2118.9840125033006], [2975.882226145485, 2118.9840125033006], [2975.882226145485, 1798.8068768491028]]]}}]}