{"type": "FeatureCollection", "features": [{"type": "Feature", "properties": {"objectType": "annotation", "name": "Follicle_1", "classification": {"name": "Follicle"}}, "geometry": {"type": "Polygon", "coordinates": [[[691.9100094250168, 691.4460257358588], [1006.0531445061472, 691.4460257358588], [1006.0531445061472, 1005.5891608169892], [691.9100094250168, 1005.5891608169892], [691.9100094250168, 691.4460257358588]]]}}, {"type": "Feature", "properties": {"objectType": "annotation", "name": "Follicle_1_exp20um", "classification": {"name": "FollicleExpanded"}}, "geometry": {"type": "Polygon", "coordinates": [[[652.5244245490813, 652.0604408599233], [1045.4387293820826, 652.0604408599233], [1045.4387293820826, 1044.9747456929247], [652.5244245490813, 1044.9747456929247], [652.5244245490813, 652.0604408599233]]]}}, {"type": "Feature", "properties": {"objectType": "annotation", "name": "Follicle_2", "classification": {"name": "Follicle"}}, "geometry": {"type": "Polygon", "coordinates": [[[1913.8222800508145, 759.5556628955422], [2095.370359075691, 759.5556628955422], [2095.370359075691, 941.1037419204187], [1913.8222800508145, 941.1037419204187], [1913.8222800508145, 759.5556628955422]]]}}, {"type": "Feature", "properties": {"objectType": "annotation", "name": "Follicle_2_exp20um", "classification": {"name": "FollicleExpanded"}}, "geometry": {"type": "Polygon", "coordinates": [[[1874.436695174879, 720.1700780196068], [2134.7559439516263, 720.1700780196068], [2134.7559439516263, 980.4893267963541], [1874.436695174879, 980.4893267963541], [1874.436695174879, 720.1700780196068]]]}}, {"type": "Feature", "properties": {"objectType": "annotation", "name": "Follicle_3", "classification": {"name": "Follicle"}}, "geometry": {"type": "Polygon", "coordinates": [[[2963.0748713632283, 651.8900919603284], [3245.0289173082365, 651.8900919603284], [3245.0289173082365, 933.8441379053361], [2963.0748713632283, 933.8441379053361], [2963.0748713632283, 651.8900919603284]]]}}, {"type": "Feature", "properties": {"objectType": "annotation", "name": "Follicle_3_exp20um", "classification": {"name": "FollicleExpanded"}}, "geometry": {"type": "Polygon", "coordinates": [[[2923.689286487293, 612.504507084393], [3284.414502184172, 612.504507084393], [3284.414502184172, 973.2297227812714], [2923.689286487293, 973.2297227812714], [2923.689286487293, 612.504507084393]]]}}, {"type": "Feature", "properties": {"objectType": "annotation", "name": "Follicle_4", "classification": {"name": "Follicle"}}, "geometry": {"type": "Polygon", "coordinates": [[[725.780856685716, 1894.796784506622], [914.372091752089, 1894.796784506622], [914.372091752089, 2083.3880195729953], [725.780856685716, 2083.3880195729953], [725.780856685716, 1894.796784506622]]]}}, {"type": "Feature", "properties": {"objectType": "annotation", "name": "Follicle_4_exp20um", "classification": {"name": "FollicleExpanded"}}, "geometry": {"type": "Polygon", "coordinates": [[[686.3952718097805, 1855.4111996306867], [953.7576766280245, 1855.4111996306867], [953.7576766280245, 2122.7736044489307], [686.3952718097805, 2122.7736044489307], [686.3952718097805, 1855.4111996306867]]]}}, {"type": "Feature", "properties": {"objectType": "annotation", "name": "Follicle_5", "classification": {"name": "Follicle"}}, "geometry": {"type": "Polygon", "coordinates": [[[1804.2552075872684, 1857.6160694647185], [2066.6818657792833, 1857.6160694647185], [2066.6818657792833, 2120.0427276567334], [1804.2552075872684, 2120.0427276567334], [1804.2552075872684, 1857.6160694647185]]]}}, {"type": "Feature", "properties": {"objectType": "annotation", "name": "Follicle_5_exp20um", "classification": {"name": "FollicleExpanded"}}, "geometry": {"type": "Polygon", "coordinates": [[[1764.869622711333, 1818.2304845887832], [2106.0674506552186, 1818.2304845887832], [2106.0674506552186, 2159.4283125326688], [1764.869622711333, 2159.4283125326688], [1764.869622711333, 1818.2304845887832]]]}}, {"type": "Feature", "properties": {"objectType": "annotation", "name": "Follicle_6", "classification": {"name": "Follicle"}}, "geometry": {"type": "Polygon", "coordinates": [[[3081.4865969626817, 1890.3904344425441], [3268.15327773261, 1890.3904344425441], [3268.15327773261, 2077.057115212473], [3081.4865969626817, 2077.057115212473], [3081.4865969626817, 1890.3904344425441]]]}}, {"type": "Feature", "properties": {"objectType": "annotation", "name": "Follicle_6_exp20um", "classification": {"name": "FollicleExpanded"}}, "geometry": {"type": "Polygon", "coordinates": [[[3042.1010120867463, 1851.0048495666088], [3307.5388626085455, 1851.0048495666088], [3307.5388626085455, 2116.4427000884084], [3042.1010120867463, 2116.4427000884084], [3042.1010120867463, 1851.0048495666088]]]}}]}